STARLINK-31217          
1 59036U 24038P   26067.99010758  .00010281  00000+0  37774-3 0  9992
2 59036  43.0013 293.1531 0001104 271.0681  89.0045 15.28001451115832
2025-313BD              
1 67299U 25313BD  26068.62968741  .00081010  00000+0  27634-2 0  9995
2 67299  97.3970 145.2850 0007287 333.4514  26.6352 15.30002360 10838
